PRAETORIAN SDA_601      
1 65585U 25203W   26068.60899693 -.00000016  00000+0 -25722-4 0  9993
2 65585  81.3004 103.1096 0006541 109.4555 250.7309 13.83485126 24915
SDA_1666                
1 65976U 25230C   26068.74406641  .00000316  00000+0  27119-3 0  9991
2 65976  81.2989 303.9667 0003465  65.2914 294.8603 13.84647296 20049
