[{"OBJECT_NAME":"PRAETORIAN SDA_601","OBJECT_ID":"2025-203W","EPOCH":"2026-03-09T14:36:57.334752","MEAN_MOTION":13.83485126,"ECCENTRICITY":0.0006541,"INCLINATION":81.3004,"RA_OF_ASC_NODE":103.1096,"ARG_OF_PERICENTER":109.4555,"MEAN_ANOMALY":250.7309,"EPHEMERIS_TYPE":0,"CLASSIFICATION_TYPE":"U","NORAD_CAT_ID":65585,"ELEMENT_SET_NO":999,"REV_AT_EPOCH":2491,"BSTAR":-2.5722e-5,"MEAN_MOTION_DOT":-1.6e-7,"MEAN_MOTION_DDOT":0},{"OBJECT_NAME":"SDA_1666","OBJECT_ID":"2025-230C","EPOCH":"2026-03-09T17:51:27.338688","MEAN_MOTION":13.84647296,"ECCENTRICITY":0.0003465,"INCLINATION":81.2989,"RA_OF_ASC_NODE":303.9667,"ARG_OF_PERICENTER":65.2914,"MEAN_ANOMALY":294.8603,"EPHEMERIS_TYPE":0,"CLASSIFICATION_TYPE":"U","NORAD_CAT_ID":65976,"ELEMENT_SET_NO":999,"REV_AT_EPOCH":2004,"BSTAR":0.00027119407,"MEAN_MOTION_DOT":3.16e-6,"MEAN_MOTION_DDOT":0}]
